{"fetched_at":"2026-07-10T18:08:14.252Z","source":"https://celestrak.org/NORAD/elements/gp.php?NAME=HAWK&FORMAT=JSON","constellation":"hawkeye-360","records":[{"OBJECT_NAME":"HAWK-12A","OBJECT_ID":"2025-138C","EPOCH":"2026-07-09T20:17:33.724608","CLASSIFICATION_TYPE":"U","MEAN_MOTION":15.18380966,"ECCENTRICITY":0.00154654,"INCLINATION":97.4413,"RA_OF_ASC_NODE":193.2478,"ARG_OF_PERICENTER":63.2529,"MEAN_ANOMALY":297.0286,"EPHEMERIS_TYPE":0,"NORAD_CAT_ID":64623,"ELEMENT_SET_NO":999,"REV_AT_EPOCH":5730,"BSTAR":0.00014008886,"MEAN_MOTION_DOT":0.0000282,"MEAN_MOTION_DDOT":0},{"OBJECT_NAME":"HAWK-13A","OBJECT_ID":"2026-004AF","EPOCH":"2026-07-09T17:17:10.908960","CLASSIFICATION_TYPE":"U","MEAN_MOTION":15.19330591,"ECCENTRICITY":0.00037459,"INCLINATION":97.4443,"RA_OF_ASC_NODE":189.2704,"ARG_OF_PERICENTER":245.1003,"MEAN_ANOMALY":114.9842,"EPHEMERIS_TYPE":0,"NORAD_CAT_ID":67392,"ELEMENT_SET_NO":999,"REV_AT_EPOCH":2718,"BSTAR":0.00013656995,"MEAN_MOTION_DOT":0.00002817,"MEAN_MOTION_DDOT":0},{"OBJECT_NAME":"HAWK-13C","OBJECT_ID":"2026-004AG","EPOCH":"2026-07-10T05:55:40.663488","CLASSIFICATION_TYPE":"U","MEAN_MOTION":15.19333711,"ECCENTRICITY":0.0003642,"INCLINATION":97.4589,"RA_OF_ASC_NODE":190.2043,"ARG_OF_PERICENTER":247.0886,"MEAN_ANOMALY":112.9965,"EPHEMERIS_TYPE":0,"NORAD_CAT_ID":67393,"ELEMENT_SET_NO":999,"REV_AT_EPOCH":2726,"BSTAR":0.00013661106,"MEAN_MOTION_DOT":0.00002818,"MEAN_MOTION_DDOT":0},{"OBJECT_NAME":"HAWK-13B","OBJECT_ID":"2026-004AK","EPOCH":"2026-07-10T05:55:32.787264","CLASSIFICATION_TYPE":"U","MEAN_MOTION":15.19332862,"ECCENTRICITY":0.00049387,"INCLINATION":97.4529,"RA_OF_ASC_NODE":190.0314,"ARG_OF_PERICENTER":246.884,"MEAN_ANOMALY":113.1875,"EPHEMERIS_TYPE":0,"NORAD_CAT_ID":67396,"ELEMENT_SET_NO":999,"REV_AT_EPOCH":2726,"BSTAR":0.0001351624,"MEAN_MOTION_DOT":0.00002787,"MEAN_MOTION_DDOT":0},{"OBJECT_NAME":"HAWK-14B","OBJECT_ID":"2026-067W","EPOCH":"2026-07-08T19:58:13.610208","CLASSIFICATION_TYPE":"U","MEAN_MOTION":15.18398257,"ECCENTRICITY":0.00022704,"INCLINATION":97.4554,"RA_OF_ASC_NODE":147.9724,"ARG_OF_PERICENTER":18.6098,"MEAN_ANOMALY":341.5218,"EPHEMERIS_TYPE":0,"NORAD_CAT_ID":68436,"ELEMENT_SET_NO":999,"REV_AT_EPOCH":1522,"BSTAR":0.00014725924,"MEAN_MOTION_DOT":0.00002961,"MEAN_MOTION_DDOT":0},{"OBJECT_NAME":"HAWK-14C","OBJECT_ID":"2026-067AB","EPOCH":"2026-07-09T14:57:08.260128","CLASSIFICATION_TYPE":"U","MEAN_MOTION":15.18405678,"ECCENTRICITY":0.00031789,"INCLINATION":97.449,"RA_OF_ASC_NODE":148.6369,"ARG_OF_PERICENTER":38.2811,"MEAN_ANOMALY":321.8648,"EPHEMERIS_TYPE":0,"NORAD_CAT_ID":68441,"ELEMENT_SET_NO":999,"REV_AT_EPOCH":1534,"BSTAR":0.00015280574,"MEAN_MOTION_DOT":0.00003076,"MEAN_MOTION_DDOT":0},{"OBJECT_NAME":"HAWK-14A","OBJECT_ID":"2026-067AJ","EPOCH":"2026-07-08T23:08:21.109344","CLASSIFICATION_TYPE":"U","MEAN_MOTION":15.18397986,"ECCENTRICITY":0.00039241,"INCLINATION":97.4616,"RA_OF_ASC_NODE":148.2238,"ARG_OF_PERICENTER":32.2591,"MEAN_ANOMALY":327.8883,"EPHEMERIS_TYPE":0,"NORAD_CAT_ID":68448,"ELEMENT_SET_NO":999,"REV_AT_EPOCH":1524,"BSTAR":0.00015712151,"MEAN_MOTION_DOT":0.00003164,"MEAN_MOTION_DDOT":0}]}
